 Automated mail xmit by MAIL_REQUEST, PID=   21511 Sat Oct 11 05:59:36 2014
++++++++++++++++++++++++++++++++ (part 1 of 1)  
++++++++++++++++++++++++++++++++ +++++++++++++++++++++++++++++++

*******************************************************************************
Revised: Jul 31, 2013                  Earth                                399
 
PHYSICAL PROPERTIES (revised Sep 18, 2013):
 Mean radius, km          = 6371.01+-0.01   Mass, 10^24 kg = 5.97219+-0.0006
 Equ. radius, km          = 6378.14+-0.01   Mass layers:
 Polar axis, km           = 6356.752          Atmos          = 5.1   x 10^18 kg
 Flattening               = 1/298.257         oceans         = 1.4   x 10^21 kg
 Density, gm cm^-3        = 5.515             crust          = 2.6   x 10^22 kg
 J2  (GEM T2, 1990)       = 0.0010826265      mantle         = 4.043 x 10^24 kg
 gp, m s^-2 (polar)       = 9.8321863685      outer core     = 1.835 x 10^24 kg
 ge, m s^-2 (equatorial)  = 9.7803267715      inner core     = 9.675 x 10^22 kg
 go, m s^-2               = 9.82022         Fluid core rad   = 3480 km
 GM, km^3 s^-2            = 398600.440      Inner core rad   = 1215 km
 Mean rot. rate, rad s^-1 = 7.292115*10^-5  Surface Area:
 Sidereal period, hr      = 23.93419          land           = 1.48 x 10^8 km
 Mean solar day, days     = 1.002738          sea            = 3.62 x 10^8 km
 Moment of inertia        = 0.3308          Love no., k2     = 0.299
 Mean Temperature, K      = 270             Atm. pressure    = 1.0 bar
 Solar constant, W/m^2    = 1367.6          Vis. mag. V(1,0) = -3.86
 Volume, 10^10 km^3       = 108.321         Geometric albedo = 0.367 

DYNAMICAL CHARACTERISTICS:
 Obliquity to orbit, deg  = 23.45           Sidereal period  = 1.0000174  yrs
 Orbit velocity, km s^-1  = 29.7859         Sidereal period  = 365.25636  days
 Mean daily motion, n     = 0.9856474 deg/d Escape velocity  = 11.186 km s^-1
 Hill's sphere radius     = 234.9           Magnetic moment  = 0.61 gauss Rp^3
*******************************************************************************
 
 
*******************************************************************************
Ephemeris / MAIL_REQUEST Sat Oct 11 05:59:36 2014 Pasadena, USA  / Horizons    
*******************************************************************************
Target body name: Earth (399)                     {source: DE-0431LE-0431}
Center body name: Sun (10)                        {source: DE-0431LE-0431}
Center-site name: BODY CENTER
*******************************************************************************
Start time      : A.D. 2014-Sep-01 10:00:00.0000 CT 
Stop  time      : A.D. 2014-Oct-01 10:00:00.0000 CT 
Step-size       : 2 steps
*******************************************************************************
Center geodetic : 0.00000000,0.00000000,0.0000000 {E-lon(deg),Lat(deg),Alt(km)} Center cylindric: 0.00000000,0.00000000,0.0000000 {E-lon(deg),Dxy(km),Dz(km)}
Center radii    : 696000.0 x 696000.0 x 696000.0 k{Equator, meridian, pole}    
Output units    : AU-D                                                         
Output format   : 03
Reference frame : ICRF/J2000.0                                                 
Output type     : GEOMETRIC cartesian states
Coordinate systm: Ecliptic and Mean Equinox of Reference Epoch                 
*******************************************************************************
JDCT ,   , X, Y, Z, VX, VY, VZ, LT, RG, RR,
*******************************************************************************
$$SOE
2456901.916666667, A.D. 2014-Sep-01 10:00:00.0000,  9.402885736741604E-01, -3.665794993218981E-01,  7.854785971128921E-06,  5.964130059124099E-03,  1.596813934008981E-02, -1.032395862223709E-06,  5.828763238978476E-03,  1.009219069958043E+00, -2.433457643749246E-04, 2456916.916666667, A.D. 2014-Sep-16 10:00:00.0000,  9.984554877453690E-01, -1.179089173520072E-01,  4.001917109044920E-06,  1.744590865815687E-03,  1.702037187436727E-02, -2.888571271565988E-07,  5.806667969072314E-03,  1.005393392566303E+00, -2.635359451395932E-04, 2456931.916666667, A.D. 2014-Oct-01 10:00:00.0000,  9.915740945209818E-01,  1.385294632503833E-01, -9.765660895781959E-06, -2.666667740711848E-03,  1.697358559227212E-02, -7.061585868208870E-07,  5.782472481208272E-03,  1.001204073707709E+00, -2.925047446842067E-04, $$EOE
*******************************************************************************
Coordinate system description:

  Ecliptic and Mean Equinox of Reference Epoch

    Reference epoch: J2000.0
    xy-plane: plane of the Earth's orbit at the reference epoch
    x-axis  : out along ascending node of instantaneous plane of the Earth's
              orbit and the Earth's mean equator at the reference epoch
    z-axis  : perpendicular to the xy-plane in the directional (+ or -) sense
              of Earth's north pole at the reference epoch.

Symbol meaning [1 au=149597870.700 km, 1 day=86400.0 s]:

    JDCT     Epoch Julian Date, Coordinate Time
      X      x-component of position vector (AU)                               
      Y      y-component of position vector (AU)                               
      Z      z-component of position vector (AU)                               
      VX     x-component of velocity vector (AU/day)                           
      VY     y-component of velocity vector (AU/day)                           
      VZ     z-component of velocity vector (AU/day)                           
      LT     One-way down-leg Newtonian light-time (day)                       
      RG     Range; distance from coordinate center (AU)                       
      RR     Range-rate; radial velocity wrt coord. center (AU/day)            

Geometric states/elements have no aberration corrections applied.

 Computations by ...
     Solar System Dynamics Group, Horizons On-Line Ephemeris System
     4800 Oak Grove Drive, Jet Propulsion Laboratory
     Pasadena, CA  91109   USA
     Information: http://ssd.jpl.nasa.gov/
     Connect    : telnet://ssd.jpl.nasa.gov:6775  (via browser)
                  telnet ssd.jpl.nasa.gov 6775    (via command-line)
     Author     : Jon.Giorgini@jpl.nasa.gov
*******************************************************************************
